start=new Date('2022-10-11T00:00:00.000Z').valueOf();
sats=[{"MEAN_ELEMENT_THEORY":"SGP4","EPOCH":"2022-10-10T17:44:53.542176","ECCENTRICITY":"0.00017520","RA_OF_ASC_NODE":"299.9079","REV_AT_EPOCH":"13729","CENTER_NAME":"EARTH","TLE_LINE1":"1 45536U 20025F   22283.73950859  .00001679  00000-0  13161-3 0  9993","PERIOD":"95.592","COUNTRY_CODE":"US","RCS_SIZE":"LARGE","ELEMENT_SET_NO":"999","MEAN_MOTION":"15.06400621","EPHEMERIS_TYPE":"0","MEAN_MOTION_DDOT":"0.0000000000000","INCLINATION":"53.0556","REF_FRAME":"TEME","GP_ID":"214714891","OBJECT_ID":"2020-025F","APOAPSIS":"548.425","CLASSIFICATION_TYPE":"U","BSTAR":"0.00013161000000","ARG_OF_PERICENTER":"55.3768","MEAN_MOTION_DOT":"0.00001679","OBJECT_TYPE":"PAYLOAD","LAUNCH_DATE":"2020-04-22","PERIAPSIS":"545.998","DECAY_DATE":null,"MEAN_ANOMALY":"304.7386","FILE":"3601747","SEMIMAJOR_AXIS":"6925.347","TIME_SYSTEM":"UTC","SITE":"AFETR","NORAD_CAT_ID":"45536","OBJECT_NAME":"STARLINK-1352","TLE_LINE2":"2 45536  53.0556 299.9079 0001752  55.3768 304.7386 15.06400621137291"},{"REF_FRAME":"TEME","GP_ID":"214715623","OBJECT_ID":"2020-025G","APOAPSIS":"476.036","CLASSIFICATION_TYPE":"U","BSTAR":"0.00333050000000","ARG_OF_PERICENTER":"98.8206","MEAN_MOTION_DOT":"0.00102815","OBJECT_TYPE":"PAYLOAD","PERIAPSIS":"468.486","LAUNCH_DATE":"2020-04-22","DECAY_DATE":null,"MEAN_ANOMALY":"261.3417","FILE":"3601747","SEMIMAJOR_AXIS":"6850.396","TIME_SYSTEM":"UTC","SITE":"AFETR","NORAD_CAT_ID":"45537","OBJECT_NAME":"STARLINK-1353","TLE_LINE2":"2 45537  52.9742 237.2733 0005510  98.8206 261.3417 15.31190589138127","MEAN_ELEMENT_THEORY":"SGP4","EPOCH":"2022-10-10T13:50:21.839424","ECCENTRICITY":"0.00055100","RA_OF_ASC_NODE":"237.2733","REV_AT_EPOCH":"13812","CENTER_NAME":"EARTH","TLE_LINE1":"1 45537U 20025G   22283.57664166  .00102815  00000-0  33305-2 0  9994","PERIOD":"94.044","COUNTRY_CODE":"US","RCS_SIZE":"LARGE","ELEMENT_SET_NO":"999","EPHEMERIS_TYPE":"0","MEAN_MOTION":"15.31190589","INCLINATION":"52.9742","MEAN_MOTION_DDOT":"0.0000000000000"},{"PERIOD":"95.592","COUNTRY_CODE":"US","ELEMENT_SET_NO":"999","RCS_SIZE":"LARGE","MEAN_MOTION_DDOT":"0.0000000000000","INCLINATION":"53.0535","MEAN_MOTION":"15.06398216","EPHEMERIS_TYPE":"0","TLE_LINE1":"1 45538U 20025H   22283.43358503  .00002886  00000-0  21259-3 0  9998","EPOCH":"2022-10-10T10:24:21.746592","ECCENTRICITY":"0.00019370","REV_AT_EPOCH":"13725","RA_OF_ASC_NODE":"301.2898","CENTER_NAME":"EARTH","MEAN_ELEMENT_THEORY":"SGP4","SITE":"AFETR","NORAD_CAT_ID":"45538","TLE_LINE2":"2 45538  53.0535 301.2898 0001937  50.1445 309.9715 15.06398216137251","OBJECT_NAME":"STARLINK-1362","MEAN_ANOMALY":"309.9715","DECAY_DATE":null,"FILE":"3600948","TIME_SYSTEM":"UTC","SEMIMAJOR_AXIS":"6925.354","ARG_OF_PERICENTER":"50.1445","MEAN_MOTION_DOT":"0.00002886","PERIAPSIS":"545.878","LAUNCH_DATE":"2020-04-22","OBJECT_TYPE":"PAYLOAD","OBJECT_ID":"2020-025H","GP_ID":"214673372","REF_FRAME":"TEME","APOAPSIS":"548.560","BSTAR":"0.00021259000000","CLASSIFICATION_TYPE":"U"},{"EPOCH":"2022-10-10T17:50:12.397920","ECCENTRICITY":"0.00017750","RA_OF_ASC_NODE":"299.9037","REV_AT_EPOCH":"13729","CENTER_NAME":"EARTH","MEAN_ELEMENT_THEORY":"SGP4","PERIOD":"95.592","COUNTRY_CODE":"US","RCS_SIZE":"LARGE","ELEMENT_SET_NO":"999","EPHEMERIS_TYPE":"0","MEAN_MOTION":"15.06397859","MEAN_MOTION_DDOT":"0.0000000000000","INCLINATION":"53.0536","TLE_LINE1":"1 45540U 20025K   22283.74319905  .00000854  00000-0  76214-4 0  9993","ARG_OF_PERICENTER":"53.9639","MEAN_MOTION_DOT":"0.00000854","OBJECT_TYPE":"PAYLOAD","LAUNCH_DATE":"2020-04-22","PERIAPSIS":"545.991","REF_FRAME":"TEME","OBJECT_ID":"2020-025K","GP_ID":"214714141","APOAPSIS":"548.449","CLASSIFICATION_TYPE":"U","BSTAR":"0.00007621400000","SITE":"AFETR","NORAD_CAT_ID":"45540","OBJECT_NAME":"STARLINK-1368","TLE_LINE2":"2 45540  53.0536 299.9037 0001775  53.9639 306.1514 15.06397859137291","DECAY_DATE":null,"MEAN_ANOMALY":"306.1514","FILE":"3601747","SEMIMAJOR_AXIS":"6925.355","TIME_SYSTEM":"UTC"},{"REV_AT_EPOCH":"13729","RA_OF_ASC_NODE":"299.8803","CENTER_NAME":"EARTH","EPOCH":"2022-10-10T17:55:30.912384","ECCENTRICITY":"0.00016840","MEAN_ELEMENT_THEORY":"SGP4","ELEMENT_SET_NO":"999","RCS_SIZE":"LARGE","MEAN_MOTION_DDOT":"0.0000000000000","INCLINATION":"53.0549","MEAN_MOTION":"15.06394122","EPHEMERIS_TYPE":"0","PERIOD":"95.593","COUNTRY_CODE":"US","TLE_LINE1":"1 45541U 20025L   22283.74688556  .00000832  00000-0  74762-4 0  9997","MEAN_MOTION_DOT":"0.00000832","LAUNCH_DATE":"2020-04-22","PERIAPSIS":"546.065","OBJECT_TYPE":"PAYLOAD","ARG_OF_PERICENTER":"54.7072","BSTAR":"0.00007476200000","CLASSIFICATION_TYPE":"U","GP_ID":"214715392","OBJECT_ID":"2020-025L","REF_FRAME":"TEME","APOAPSIS":"548.398","OBJECT_NAME":"STARLINK-1369","TLE_LINE2":"2 45541  53.0549 299.8803 0001684  54.7072 305.4074 15.06394122137298","SITE":"AFETR","NORAD_CAT_ID":"45541","TIME_SYSTEM":"UTC","SEMIMAJOR_AXIS":"6925.367","DECAY_DATE":null,"MEAN_ANOMALY":"305.4074","FILE":"3601747"},{"FILE":"3600948","DECAY_DATE":null,"MEAN_ANOMALY":"301.6808","SEMIMAJOR_AXIS":"6925.349","TIME_SYSTEM":"UTC","SITE":"AFETR","NORAD_CAT_ID":"45542","TLE_LINE2":"2 45542  53.0539 301.8228 0001950  58.4371 301.6808 15.06399945137237","OBJECT_NAME":"STARLINK-1371","APOAPSIS":"548.564","REF_FRAME":"TEME","GP_ID":"214673124","OBJECT_ID":"2020-025M","CLASSIFICATION_TYPE":"U","BSTAR":"0.00013218000000","ARG_OF_PERICENTER":"58.4371","OBJECT_TYPE":"PAYLOAD","LAUNCH_DATE":"2020-04-22","PERIAPSIS":"545.863","MEAN_MOTION_DOT":"0.00001688","TLE_LINE1":"1 45542U 20025M   22283.31562396  .00001688  00000-0  13218-3 0  9992","COUNTRY_CODE":"US","PERIOD":"95.592","MEAN_MOTION":"15.06399945","EPHEMERIS_TYPE":"0","MEAN_MOTION_DDOT":"0.0000000000000","INCLINATION":"53.0539","RCS_SIZE":"LARGE","ELEMENT_SET_NO":"999","MEAN_ELEMENT_THEORY":"SGP4","ECCENTRICITY":"0.00019500","EPOCH":"2022-10-10T07:34:29.910144","CENTER_NAME":"EARTH","RA_OF_ASC_NODE":"301.8228","REV_AT_EPOCH":"13723"},{"SITE":"AFETR","NORAD_CAT_ID":"45543","TLE_LINE2":"2 45543  53.0551 299.8612 0001823  49.5771 310.5376 15.06390935136394","OBJECT_NAME":"STARLINK-1372","FILE":"3601747","MEAN_ANOMALY":"310.5376","DECAY_DATE":null,"TIME_SYSTEM":"UTC","SEMIMAJOR_AXIS":"6925.376","ARG_OF_PERICENTER":"49.5771","LAUNCH_DATE":"2020-04-22","PERIAPSIS":"545.979","OBJECT_TYPE":"PAYLOAD","MEAN_MOTION_DOT":"0.00001201","APOAPSIS":"548.504","GP_ID":"214713892","OBJECT_ID":"2020-025N","REF_FRAME":"TEME","BSTAR":"0.00009952100000","CLASSIFICATION_TYPE":"U","COUNTRY_CODE":"US","PERIOD":"95.593","INCLINATION":"53.0551","MEAN_MOTION_DDOT":"0.0000000000000","EPHEMERIS_TYPE":"0","MEAN_MOTION":"15.06390935","ELEMENT_SET_NO":"999","RCS_SIZE":"LARGE","TLE_LINE1":"1 45543U 20025N   22283.75057559  .00001201  00000-0  99521-4 0  9994","ECCENTRICITY":"0.00018230","EPOCH":"2022-10-10T18:00:49.730976","CENTER_NAME":"EARTH","REV_AT_EPOCH":"13639","RA_OF_ASC_NODE":"299.8612","MEAN_ELEMENT_THEORY":"SGP4"},{"PERIAPSIS":"546.108","LAUNCH_DATE":"2020-04-22","OBJECT_TYPE":"PAYLOAD","MEAN_MOTION_DOT":"0.00000815","ARG_OF_PERICENTER":"63.0476","BSTAR":"0.00007364500000","CLASSIFICATION_TYPE":"U","APOAPSIS":"548.372","GP_ID":"214714641","OBJECT_ID":"2020-025P","REF_FRAME":"TEME","TLE_LINE2":"2 45544  53.0546 299.7856 0001635  63.0476 297.0680 15.06391317137306","OBJECT_NAME":"STARLINK-1373","SITE":"AFETR","NORAD_CAT_ID":"45544","SEMIMAJOR_AXIS":"6925.375","TIME_SYSTEM":"UTC","FILE":"3601747","DECAY_DATE":null,"MEAN_ANOMALY":"297.0680","CENTER_NAME":"EARTH","REV_AT_EPOCH":"13730","RA_OF_ASC_NODE":"299.7856","ECCENTRICITY":"0.00016350","EPOCH":"2022-10-10T18:27:22.173696","MEAN_ELEMENT_THEORY":"SGP4","MEAN_MOTION_DDOT":"0.0000000000000","INCLINATION":"53.0546","EPHEMERIS_TYPE":"0","MEAN_MOTION":"15.06391317","ELEMENT_SET_NO":"999","RCS_SIZE":"LARGE","COUNTRY_CODE":"US","PERIOD":"95.593","TLE_LINE1":"1 45544U 20025P   22283.76900664  .00000815  00000-0  73645-4 0  9999"},{"APOAPSIS":"548.733","GP_ID":"214714892","OBJECT_ID":"2020-025Q","REF_FRAME":"TEME","BSTAR":"0.00001066900000","CLASSIFICATION_TYPE":"U","ARG_OF_PERICENTER":"40.8912","LAUNCH_DATE":"2020-04-22","PERIAPSIS":"545.715","OBJECT_TYPE":"PAYLOAD","MEAN_MOTION_DOT":"-0.00000123","FILE":"3601747","DECAY_DATE":null,"MEAN_ANOMALY":"319.2240","TIME_SYSTEM":"UTC","SEMIMAJOR_AXIS":"6925.359","SITE":"AFETR","NORAD_CAT_ID":"45545","TLE_LINE2":"2 45545  53.0552 299.6950 0002179  40.8912 319.2240 15.06396594137288","OBJECT_NAME":"STARLINK-1374","MEAN_ELEMENT_THEORY":"SGP4","ECCENTRICITY":"0.00021790","EPOCH":"2022-10-10T18:53:54.105792","CENTER_NAME":"EARTH","REV_AT_EPOCH":"13728","RA_OF_ASC_NODE":"299.6950","TLE_LINE1":"1 45545U 20025Q   22283.78743178 -.00000123  00000-0  10669-4 0  9997","COUNTRY_CODE":"US","PERIOD":"95.592","INCLINATION":"53.0552","MEAN_MOTION_DDOT":"0.0000000000000","MEAN_MOTION":"15.06396594","EPHEMERIS_TYPE":"0","ELEMENT_SET_NO":"999","RCS_SIZE":"LARGE"},{"SITE":"AFETR","NORAD_CAT_ID":"45546","OBJECT_NAME":"STARLINK-1375","TLE_LINE2":"2 45546  53.0519 301.7401 0001687  64.2298 295.8865 15.06395993137237","FILE":"3600948","MEAN_ANOMALY":"295.8865","DECAY_DATE":null,"TIME_SYSTEM":"UTC","SEMIMAJOR_AXIS":"6925.361","ARG_OF_PERICENTER":"64.2298","OBJECT_TYPE":"PAYLOAD","LAUNCH_DATE":"2020-04-22","PERIAPSIS":"546.058","MEAN_MOTION_DOT":"0.00001078","APOAPSIS":"548.394","REF_FRAME":"TEME","GP_ID":"214672624","OBJECT_ID":"2020-025R","CLASSIFICATION_TYPE":"U","BSTAR":"0.00009125500000","COUNTRY_CODE":"US","PERIOD":"95.592","EPHEMERIS_TYPE":"0","MEAN_MOTION":"15.06395993","MEAN_MOTION_DDOT":"0.0000000000000","INCLINATION":"53.0519","RCS_SIZE":"LARGE","ELEMENT_SET_NO":"999","TLE_LINE1":"1 45546U 20025R   22283.33405708  .00001078  00000-0  91255-4 0  9992","ECCENTRICITY":"0.00016870","EPOCH":"2022-10-10T08:01:02.531712","CENTER_NAME":"EARTH","RA_OF_ASC_NODE":"301.7401","REV_AT_EPOCH":"13723","MEAN_ELEMENT_THEORY":"SGP4"}];
